NORAD_CAT_ID,OBJECT_NAME,OBJECT_TYPE,EPOCH,MEAN_MOTION,ECCENTRICITY,INCLINATION,RA_OF_ASC_NODE,ARG_OF_PERICENTER,MEAN_ANOMALY,BSTAR,MEAN_MOTION_DOT,MEAN_MOTION_DDOT,TLE_LINE0,TLE_LINE1,TLE_LINE2,SEMIMAJOR_AXIS,PERIOD,APOGEE,PERIGEE,DECAYED
54076.0,STARLINK-5201,PAYLOAD,2023-09-08 01:33:24,15.08841339,0.0001556,53.2166,125.1146,101.9078,258.2089,-4.2942e-05,-9.71e-06,0.0,0 STARLINK-5201,1 54076U 22136AB  23251.06486705 -.00000971  00000-0 -42942-4 0  9999,2 54076  53.2166 125.1146 0001556 101.9078 258.2089 15.08841339 49403,6917.876,95.437,540.818,538.665,0.0
54076.0,STARLINK-5201,PAYLOAD,2023-09-08 22:13:25,15.08835036,0.0001188,53.2167,121.2516,95.3483,264.7645,8.0039e-05,9.86e-06,0.0,0 STARLINK-5201,1 54076U 22136AB  23251.92598664  .00000986  00000-0  80039-4 0  9995,2 54076  53.2167 121.2516 0001188  95.3483 264.7645 15.08835036 49057,6917.896,95.438,540.582,538.939,0.0
54076.0,STARLINK-5201,PAYLOAD,2023-09-09 07:45:44,15.08836135,0.000117,53.2166,119.4669,94.6948,265.4177,7.7949e-05,9.53e-06,0.0,0 STARLINK-5201,1 54076U 22136AB  23252.32342707  .00000953  00000-0  77949-4 0  9995,2 54076  53.2166 119.4669 0001170  94.6948 265.4177 15.08836135 49591,6917.892,95.438,540.567,538.948,0.0
54076.0,STARLINK-5201,PAYLOAD,2023-09-09 18:53:26,15.08807738,0.0001373,53.2175,117.385,89.9853,270.1297,0.0003936,5.976e-05,0.0,0 STARLINK-5201,1 54076U 22136AB  23252.78711455  .00005976  00000-0  39360-3 0  9999,2 54076  53.2175 117.3850 0001373  89.9853 270.1297 15.08807738 49668,6917.979,95.44,540.794,538.894,0.0
54076.0,STARLINK-5201,PAYLOAD,2023-09-10 01:14:58,15.08838277,0.0001281,53.2167,116.1962,93.1256,266.9883,0.00012688,1.732e-05,0.0,0 STARLINK-5201,1 54076U 22136AB  23253.05206847  .00001732  00000-0  12688-3 0  9994,2 54076  53.2167 116.1962 0001281  93.1256 266.9883 15.08838277 49703,6917.886,95.438,540.637,538.864,0.0
54076.0,STARLINK-5201,PAYLOAD,2023-09-10 18:44:13,15.08835086,0.0001295,53.2171,112.9262,95.8571,264.2569,4.5886e-05,4.42e-06,0.0,0 STARLINK-5201,1 54076U 22136AB  23253.78071612  .00000442  00000-0  45886-4 0  9998,2 54076  53.2171 112.9262 0001295  95.8571 264.2569 15.08835086 49818,6917.895,95.438,540.656,538.865,0.0
54076.0,STARLINK-5201,PAYLOAD,2023-09-11 07:27:19,15.08832083,0.0001314,53.2171,110.5453,90.1482,269.9661,0.00018471,2.652e-05,0.0,0 STARLINK-5201,1 54076U 22136AB  23254.31063729  .00002652  00000-0  18471-3 0  9992,2 54076  53.2171 110.5453 0001314  90.1482 269.9661 15.08832083 49410,6917.905,95.438,540.679,538.861,0.0
54076.0,STARLINK-5201,PAYLOAD,2023-09-12 00:56:32,15.08851053,0.0001329,53.2173,107.274,84.6528,275.4616,0.00014451,2.013e-05,0.0,0 STARLINK-5201,1 54076U 22136AB  23255.03926523  .00002013  00000-0  14451-3 0  9997,2 54076  53.2173 107.2740 0001329  84.6528 275.4616 15.08851053 50006,6917.847,95.437,540.631,538.792,0.0
54076.0,STARLINK-5201,PAYLOAD,2023-09-12 18:25:47,15.08839138,0.0001447,53.2182,104.0005,95.1475,264.9682,5.8677e-05,6.46e-06,0.0,0 STARLINK-5201,1 54076U 22136AB  23255.76791526  .00000646  00000-0  58677-4 0  9999,2 54076  53.2182 104.0005 0001447  95.1475 264.9682 15.08839138 50112,6917.883,95.438,540.749,538.747,0.0
54076.0,STARLINK-5201,PAYLOAD,2023-09-12 21:36:33,15.08844328,0.0001497,53.2173,103.4062,73.4967,286.619,0.00010432,1.373e-05,0.0,0 STARLINK-5201,1 54076U 22136AB  23255.90039220  .00001373  00000-0  10432-3 0  9995,2 54076  53.2173 103.4062 0001497  73.4967 286.6190 15.08844328 49657,6917.867,95.437,540.768,538.697,0.0
54076.0,STARLINK-5201,PAYLOAD,2023-09-13 13:30:26,15.08828977,0.0001537,53.22,100.4329,95.5354,264.5813,-9.0184e-05,-1.723e-05,0.0,0 STARLINK-5201,1 54076U 22136AB  23256.56281013 -.00001723  00000-0 -90184-4 0  9991,2 54076  53.2200 100.4329 0001537  95.5354 264.5813 15.08828977 49751,6917.914,95.438,540.842,538.716,0.0
54076.0,STARLINK-5201,PAYLOAD,2023-09-13 18:16:36,15.08831523,0.0001426,53.2198,99.5417,102.2642,257.851,-6.921e-05,-1.389e-05,0.0,0 STARLINK-5201,1 54076U 22136AB  23256.76152816 -.00001389  00000-0 -69210-4 0  9995,2 54076  53.2198  99.5417 0001426 102.2642 257.8510 15.08831523 50264,6917.906,95.438,540.758,538.785,0.0
54076.0,STARLINK-5201,PAYLOAD,2023-09-13 19:51:59,15.08831548,0.0001664,53.2191,99.2433,119.3035,240.8123,-3.2081e-05,-7.98e-06,0.0,0 STARLINK-5201,1 54076U 22136AB  23256.82776645 -.00000798  00000-0 -32081-4 0  9993,2 54076  53.2191  99.2433 0001664 119.3035 240.8123 15.08831548 49796,6917.906,95.438,540.922,538.62,0.0
54076.0,STARLINK-5201,PAYLOAD,2023-09-14 13:21:13,15.08838265,0.0001295,53.2192,95.9734,116.709,243.4035,0.00010392,1.366e-05,0.0,0 STARLINK-5201,1 54076U 22136AB  23257.55640223  .00001366  00000-0  10392-3 0  9996,2 54076  53.2192  95.9734 0001295 116.7090 243.4035 15.08838265 49903,6917.886,95.438,540.647,538.855,0.0
54076.0,STARLINK-5201,PAYLOAD,2023-09-14 18:07:22,15.08846506,0.0001295,53.2185,95.0828,96.5383,263.5757,0.00013808,1.911e-05,0.0,0 STARLINK-5201,1 54076U 22136AB  23257.75511796  .00001911  00000-0  13808-3 0  9991,2 54076  53.2185  95.0828 0001295  96.5383 263.5757 15.08846506 50419,6917.861,95.437,540.621,538.83,0.0
54076.0,STARLINK-5201,PAYLOAD,2023-09-14 19:42:45,15.08845353,0.000129,53.2168,94.7853,103.2607,256.8529,0.0002144,3.126e-05,0.0,0 STARLINK-5201,1 54076U 22136AB  23257.82136171  .00003126  00000-0  21440-3 0  9990,2 54076  53.2168  94.7853 0001290 103.2607 256.8529 15.08845353 49941,6917.864,95.437,540.621,538.837,0.0
54076.0,STARLINK-5201,PAYLOAD,2023-09-15 13:12:00,15.08842641,0.0001266,53.2169,91.5162,88.9069,271.2068,0.00031245,4.689e-05,0.0,0 STARLINK-5201,1 54076U 22136AB  23258.55000469  .00004689  00000-0  31245-3 0  9990,2 54076  53.2169  91.5162 0001266  88.9069 271.2068 15.08842641 50054,6917.872,95.437,540.613,538.862,0.0
54076.0,STARLINK-5201,PAYLOAD,2023-09-15 17:58:09,15.0884517,0.0001349,53.2171,90.6231,94.8527,265.2619,0.00026261,3.895e-05,0.0,0 STARLINK-5201,1 54076U 22136AB  23258.74872311  .00003895  00000-0  26261-3 0  9994,2 54076  53.2171  90.6231 0001349  94.8527 265.2619 15.08845170 50562,6917.865,95.437,540.663,538.796,0.0
54076.0,STARLINK-5201,PAYLOAD,2023-09-16 13:02:47,15.08841826,9.93e-05,53.2167,87.0547,76.0705,284.0398,-2.6857e-06,-3.3e-06,0.0,0 STARLINK-5201,1 54076U 22136AB  23259.54360223 -.00000330  00000-0 -26857-5 0  9993,2 54076  53.2167  87.0547 0000993  76.0705 284.0398 15.08841826 50209,6917.875,95.437,540.427,539.053,0.0
54076.0,STARLINK-5201,PAYLOAD,2023-09-16 19:24:19,15.08848434,0.0001261,53.2164,85.8647,89.3708,270.7429,7.9957e-05,9.85e-06,0.0,0 STARLINK-5201,1 54076U 22136AB  23259.80855791  .00000985  00000-0  79957-4 0  9993,2 54076  53.2164  85.8647 0001261  89.3708 270.7429 15.08848434 50728,6917.855,95.437,540.592,538.847,0.0
54076.0,STARLINK-5201,PAYLOAD,2023-09-17 12:53:33,15.08845526,0.0001237,53.216,82.5934,87.4395,272.6739,5.0408e-05,5.15e-06,0.0,0 STARLINK-5201,1 54076U 22136AB  23260.53719698  .00000515  00000-0  50408-4 0  9999,2 54076  53.2160  82.5934 0001237  87.4395 272.6739 15.08845526 50354,6917.863,95.437,540.584,538.873,0.0
54076.0,STARLINK-5201,PAYLOAD,2023-09-17 20:50:29,15.0885044,0.0001262,53.2165,81.1067,87.7486,272.3651,0.00011666,1.57e-05,0.0,0 STARLINK-5201,1 54076U 22136AB  23260.86839340  .00001570  00000-0  11666-3 0  9996,2 54076  53.2165  81.1067 0001262  87.7486 272.3651 15.08850440 50882,6917.848,95.437,540.587,538.84,0.0
54076.0,STARLINK-5201,PAYLOAD,2023-09-18 11:08:57,15.08841761,0.0001246,53.2177,78.4323,83.9619,276.1516,7.9178e-05,9.73e-06,0.0,0 STARLINK-5201,1 54076U 22136AB  23261.46455598  .00000973  00000-0  79178-4 0  9991,2 54076  53.2177  78.4323 0001246  83.9619 276.1516 15.08841761 50975,6917.875,95.437,540.602,538.878,0.0
54076.0,STARLINK-5201,PAYLOAD,2023-09-18 20:41:16,15.08841397,0.0001236,53.2183,76.6479,85.8299,274.2834,5.2797e-05,5.53e-06,0.0,0 STARLINK-5201,1 54076U 22136AB  23261.86199917  .00000553  00000-0  52797-4 0  9997,2 54076  53.2183  76.6479 0001236  85.8299 274.2834 15.08841397 50559,6917.876,95.437,540.596,538.886,0.0
54076.0,STARLINK-5201,PAYLOAD,2023-09-19 18:56:39,15.08850476,0.0001297,53.2178,72.4834,90.0658,270.0483,9.5704e-05,1.236e-05,0.0,0 STARLINK-5201,1 54076U 22136AB  23262.78935030  .00001236  00000-0  95704-4 0  9997,2 54076  53.2178  72.4834 0001297  90.0658 270.0483 15.08850476 51177,6917.848,95.437,540.611,538.816,0.0
54076.0,STARLINK-5201,PAYLOAD,2023-09-20 10:50:32,15.08836712,0.0001444,53.2184,69.5106,91.6343,268.4815,7.2857e-05,8.72e-06,0.0,0 STARLINK-5201,1 54076U 22136AB  23263.45176040  .00000872  00000-0  72857-4 0  9999,2 54076  53.2184  69.5106 0001444  91.6343 268.4815 15.08836712 51273,6917.89,95.438,540.754,538.756,0.0
54076.0,STARLINK-5201,PAYLOAD,2023-09-20 18:47:28,15.08835322,0.0001336,53.2181,68.0207,90.059,270.0555,4.794e-06,-2.12e-06,0.0,0 STARLINK-5201,1 54076U 22136AB  23263.78296437 -.00000212  00000-0  47940-5 0  9993,2 54076  53.2181  68.0207 0001336  90.0590 270.0555 15.08835322 50841,6917.895,95.438,540.684,538.835,0.0
54076.0,STARLINK-5201,PAYLOAD,2023-09-21 10:41:19,15.08837359,0.0001738,53.2182,65.0475,98.0552,262.0638,3.5592e-05,2.78e-06,0.0,0 STARLINK-5201,1 54076U 22136AB  23264.44536521  .00000278  00000-0  35592-4 0  9998,2 54076  53.2182  65.0475 0001738  98.0552 262.0638 15.08837359 50944,6917.888,95.438,540.956,538.551,0.0
54076.0,STARLINK-5201,PAYLOAD,2023-09-21 17:02:51,15.08847749,0.000129,53.2177,63.8583,81.2942,278.8196,5.086e-05,5.22e-06,0.0,0 STARLINK-5201,1 54076U 22136AB  23264.71031789  .00000522  00000-0  50860-4 0  9991,2 54076  53.2177  63.8583 0001290  81.2942 278.8196 15.08847749 51460,6917.857,95.437,540.614,538.829,0.0
54076.0,STARLINK-5201,PAYLOAD,2023-09-22 13:42:52,15.08838578,0.0001338,53.2182,59.9934,78.8986,281.2156,0.00015702,2.212e-05,0.0,0 STARLINK-5201,1 54076U 22136AB  23265.57144228  .00002212  00000-0  15702-3 0  9992,2 54076  53.2182  59.9934 0001338  78.8986 281.2156 15.08838578 51111,6917.885,95.438,540.675,538.824,0.0
